[{"OBJECT_NAME":"STARLINK-32319","OBJECT_ID":"2024-183V","EPOCH":"2026-03-09T11:11:58.583328","MEAN_MOTION":15.30184615,"ECCENTRICITY":0.00013372,"INCLINATION":53.1602,"RA_OF_ASC_NODE":143.8044,"ARG_OF_PERICENTER":64.9227,"MEAN_ANOMALY":295.1913,"EPHEMERIS_TYPE":0,"CLASSIFICATION_TYPE":"U","NORAD_CAT_ID":61528,"ELEMENT_SET_NO":999,"REV_AT_EPOCH":7961,"BSTAR":1.8933656e-5,"MEAN_MOTION_DOT":2.01e-6,"MEAN_MOTION_DDOT":0},{"OBJECT_NAME":"NUSHSAT1","OBJECT_ID":"2025-052B","EPOCH":"2026-03-09T15:31:41.225952","MEAN_MOTION":15.31903202,"ECCENTRICITY":0.0005501,"INCLINATION":97.4095,"RA_OF_ASC_NODE":325.7239,"ARG_OF_PERICENTER":84.7512,"MEAN_ANOMALY":275.4357,"EPHEMERIS_TYPE":0,"CLASSIFICATION_TYPE":"U","NORAD_CAT_ID":63211,"ELEMENT_SET_NO":999,"REV_AT_EPOCH":5488,"BSTAR":0.00074857,"MEAN_MOTION_DOT":0.00023034,"MEAN_MOTION_DDOT":0}]
